[
    {
        "Altitude(m)": 704566.294399851,
        "Argument of Periapsis(deg)": 0.0011390121186627068,
        "Eccentricity": 0.0,
        "Inclination(deg)": 45.0,
        "Latitude(deg)": 31.778342454507566,
        "Longitude(deg)": -118.08710389196924,
        "Mean Anomaly(deg)": 132.06242166474806,
        "RAAN(deg)": 199.99892480585416,
        "Satellite Name": "Constellation 1 888",
        "Satellite Number": 888,
        "Semi-Major Axis(m)": 7083131.272910544,
        "Time(s)": 19
    },
    {
        "Altitude(m)": 704560.3944451377,
        "Argument of Periapsis(deg)": 0.0011989601249081123,
        "Eccentricity": 0.0,
        "Inclination(deg)": 45.0,
        "Latitude(deg)": 31.74437161571435,
        "Longitude(deg)": -118.03202017277168,
        "Mean Anomaly(deg)": 132.12312280499802,
        "RAAN(deg)": 199.9988682166886,
        "Satellite Name": "Constellation 1 888",
        "Satellite Number": 888,
        "Semi-Major Axis(m)": 7083131.272910544,
        "Time(s)": 20
    },
    {
        "Altitude(m)": 704554.4968222246,
        "Argument of Periapsis(deg)": 0.001258908131153518,
        "Eccentricity": 0.0,
        "Inclination(deg)": 45.0,
        "Latitude(deg)": 31.71037313016259,
        "Longitude(deg)": -117.97697964356367,
        "Mean Anomaly(deg)": 132.1838239452479,
        "RAAN(deg)": 199.99881162752303,
        "Satellite Name": "Constellation 1 888",
        "Satellite Number": 888,
        "Semi-Major Axis(m)": 7083131.272910544,
        "Time(s)": 21
    },
    {
        "Altitude(m)": 704548.6015704344,
        "Argument of Periapsis(deg)": 0.0013188561373989236,
        "Eccentricity": 0.0,
        "Inclination(deg)": 45.0,
        "Latitude(deg)": 31.676347053900653,
        "Longitude(deg)": -117.92198241863382,
        "Mean Anomaly(deg)": 132.2445250854978,
        "RAAN(deg)": 199.99875503835747,
        "Satellite Name": "Constellation 1 888",
        "Satellite Number": 888,
        "Semi-Major Axis(m)": 7083131.272910544,
        "Time(s)": 22
    },
    {
        "Altitude(m)": 704542.7087290923,
        "Argument of Periapsis(deg)": 0.0013788041436443293,
        "Eccentricity": 0.0,
        "Inclination(deg)": 45.0,
        "Latitude(deg)": 31.642293442903533,
        "Longitude(deg)": -117.86702810788437,
        "Mean Anomaly(deg)": 132.30522622574765,
        "RAAN(deg)": 199.9986984491919,
        "Satellite Name": "Constellation 1 888",
        "Satellite Number": 888,
        "Semi-Major Axis(m)": 7083131.272910544,
        "Time(s)": 23
    },
    {
        "Altitude(m)": 704536.818337531,
        "Argument of Periapsis(deg)": 0.001438752149889735,
        "Eccentricity": 0.0,
        "Inclination(deg)": 45.0,
        "Latitude(deg)": 31.60821235307327,
        "Longitude(deg)": -117.81211682541253,
        "Mean Anomaly(deg)": 132.36592736599758,
        "RAAN(deg)": 199.99864186002634,
        "Satellite Name": "Constellation 1 888",
        "Satellite Number": 888,
        "Semi-Major Axis(m)": 7083131.272910544,
        "Time(s)": 24
    },
    {
        "Altitude(m)": 704530.9304350875,
        "Argument of Periapsis(deg)": 0.0014987001561351404,
        "Eccentricity": 0.0,
        "Inclination(deg)": 45.0,
        "Latitude(deg)": 31.57410384023886,
        "Longitude(deg)": -117.75724851712462,
        "Mean Anomaly(deg)": 132.42662850624748,
        "RAAN(deg)": 199.99858527086076,
        "Satellite Name": "Constellation 1 888",
        "Satellite Number": 888,
        "Semi-Major Axis(m)": 7083131.272910544,
        "Time(s)": 25
    },
    {
        "Altitude(m)": 704525.0450610953,
        "Argument of Periapsis(deg)": 0.001558648162380546,
        "Eccentricity": 0.0,
        "Inclination(deg)": 45.0,
        "Latitude(deg)": 31.539967960155938,
        "Longitude(deg)": -117.7024231288333,
        "Mean Anomaly(deg)": 132.4873296464974,
        "RAAN(deg)": 199.99852868169518,
        "Satellite Name": "Constellation 1 888",
        "Satellite Number": 888,
        "Semi-Major Axis(m)": 7083131.272910544,
        "Time(s)": 26
    },
    {
        "Altitude(m)": 704519.1622549035,
        "Argument of Periapsis(deg)": 0.0016185961686259519,
        "Eccentricity": 0.0,
        "Inclination(deg)": 45.0,
        "Latitude(deg)": 31.505804768506962,
        "Longitude(deg)": -117.64764060625855,
        "Mean Anomaly(deg)": 132.5480307867472,
        "RAAN(deg)": 199.99847209252962,
        "Satellite Name": "Constellation 1 888",
        "Satellite Number": 888,
        "Semi-Major Axis(m)": 7083131.272910544,
        "Time(s)": 27
    },
    {
        "Altitude(m)": 704513.2820558561,
        "Argument of Periapsis(deg)": 0.0016785441748713573,
        "Eccentricity": 0.0,
        "Inclination(deg)": 45.0,
        "Latitude(deg)": 31.471614320901164,
        "Longitude(deg)": -117.59290089502836,
        "Mean Anomaly(deg)": 132.6087319269972,
        "RAAN(deg)": 199.99841550336404,
        "Satellite Name": "Constellation 1 888",
        "Satellite Number": 888,
        "Semi-Major Axis(m)": 7083131.272910544,
        "Time(s)": 28
    },
    {
        "Altitude(m)": 704507.4045033045,
        "Argument of Periapsis(deg)": 0.001738492181116763,
        "Eccentricity": 0.0,
        "Inclination(deg)": 45.0,
        "Latitude(deg)": 31.437396672874552,
        "Longitude(deg)": -117.53820394067996,
        "Mean Anomaly(deg)": 132.66943306724707,
        "RAAN(deg)": 199.9983589141985,
        "Satellite Name": "Constellation 1 888",
        "Satellite Number": 888,
        "Semi-Major Axis(m)": 7083131.272910544,
        "Time(s)": 29
    },
    {
        "Altitude(m)": 704501.5296366052,
        "Argument of Periapsis(deg)": 0.0017984401873621684,
        "Eccentricity": 0.0,
        "Inclination(deg)": 45.0,
        "Latitude(deg)": 31.40315187989014,
        "Longitude(deg)": -117.48354985675722,
        "Mean Anomaly(deg)": 132.73013420749695,
        "RAAN(deg)": 199.9983023250329,
        "Satellite Name": "Constellation 1 888",
        "Satellite Number": 888,
        "Semi-Major Axis(m)": 7083131.272910544,
        "Time(s)": 30
    },
    {
        "Altitude(m)": 704495.6574951141,
        "Argument of Periapsis(deg)": 0.0018583881936075745,
        "Eccentricity": 0.0,
        "Inclination(deg)": 45.0,
        "Latitude(deg)": 31.36887999733686,
        "Longitude(deg)": -117.4289382524236,
        "Mean Anomaly(deg)": 132.79083534774693,
        "RAAN(deg)": 199.99824573586733,
        "Satellite Name": "Constellation 1 888",
        "Satellite Number": 888,
        "Semi-Major Axis(m)": 7083131.272910544,
        "Time(s)": 31
    },
    {
        "Altitude(m)": 704489.7881181892,
        "Argument of Periapsis(deg)": 0.0019183361998529795,
        "Eccentricity": 0.0,
        "Inclination(deg)": 45.0,
        "Latitude(deg)": 31.334581080531326,
        "Longitude(deg)": -117.37436924104524,
        "Mean Anomaly(deg)": 132.85153648799675,
        "RAAN(deg)": 199.99818914670178,
        "Satellite Name": "Constellation 1 888",
        "Satellite Number": 888,
        "Semi-Major Axis(m)": 7083131.272910544,
        "Time(s)": 32
    },
    {
        "Altitude(m)": 704483.9215451998,
        "Argument of Periapsis(deg)": 0.0019782842060983856,
        "Eccentricity": 0.0,
        "Inclination(deg)": 45.0,
        "Latitude(deg)": 31.30025518471633,
        "Longitude(deg)": -117.31984276780322,
        "Mean Anomaly(deg)": 132.9122376282467,
        "RAAN(deg)": 199.99813255753622,
        "Satellite Name": "Constellation 1 888",
        "Satellite Number": 888,
        "Semi-Major Axis(m)": 7083131.272910544,
        "Time(s)": 33
    },
    {
        "Altitude(m)": 704478.0578155037,
        "Argument of Periapsis(deg)": 0.0020382322123437906,
        "Eccentricity": 0.0,
        "Inclination(deg)": 45.0,
        "Latitude(deg)": 31.265902365061667,
        "Longitude(deg)": -117.26535877779207,
        "Mean Anomaly(deg)": 132.97293876849653,
        "RAAN(deg)": 199.99807596837064,
        "Satellite Name": "Constellation 1 888",
        "Satellite Number": 888,
        "Semi-Major Axis(m)": 7083131.272910544,
        "Time(s)": 34
    },
    {
        "Altitude(m)": 704472.1969684736,
        "Argument of Periapsis(deg)": 0.002098180218589197,
        "Eccentricity": 0.0,
        "Inclination(deg)": 45.0,
        "Latitude(deg)": 31.231522676663587,
        "Longitude(deg)": -117.21091721602,
        "Mean Anomaly(deg)": 133.0336399087465,
        "RAAN(deg)": 199.9980193792051,
        "Satellite Name": "Constellation 1 888",
        "Satellite Number": 888,
        "Semi-Major Axis(m)": 7083131.272910544,
        "Time(s)": 35
    },
    {
        "Altitude(m)": 704466.3390434827,
        "Argument of Periapsis(deg)": 0.002158128224834602,
        "Eccentricity": 0.0,
        "Inclination(deg)": 45.0,
        "Latitude(deg)": 31.197116174545243,
        "Longitude(deg)": -117.15651802741006,
        "Mean Anomaly(deg)": 133.0943410489964,
        "RAAN(deg)": 199.99796279003948,
        "Satellite Name": "Constellation 1 888",
        "Satellite Number": 888,
        "Semi-Major Axis(m)": 7083131.272910544,
        "Time(s)": 36
    },
    {
        "Altitude(m)": 704460.4840798993,
        "Argument of Periapsis(deg)": 0.002218076231080008,
        "Eccentricity": 0.0,
        "Inclination(deg)": 45.0,
        "Latitude(deg)": 31.16268291365651,
        "Longitude(deg)": -117.10216132489752,
        "Mean Anomaly(deg)": 133.15504218924625,
        "RAAN(deg)": 199.99790620087393,
        "Satellite Name": "Constellation 1 888",
        "Satellite Number": 888,
        "Semi-Major Axis(m)": 7083131.272910544,
        "Time(s)": 37
    }
]